{
    "links": {
        "self": "http://www.neowsapp.com/rest/v1/neo/3748565?api_key=iIulBulltgU6a56xZRHN4H3l9WmuAYTsLGpBGhQ2"
    },
    "id": "3748565",
    "neo_reference_id": "3748565",
    "name": "(2016 GA1)",
    "designation": "2016 GA1",
    "nasa_jpl_url": "http://ssd.jpl.nasa.gov/sbdb.cgi?sstr=3748565",
    "absolute_magnitude_h": 25.5,
    "estimated_diameter": {
        "kilometers": {
            "estimated_diameter_min": 0.0211132445,
            "estimated_diameter_max": 0.0472106499
        },
        "meters": {
            "estimated_diameter_min": 21.113244479,
            "estimated_diameter_max": 47.2106498806
        },
        "miles": {
            "estimated_diameter_min": 0.0131191578,
            "estimated_diameter_max": 0.0293353287
        },
        "feet": {
            "estimated_diameter_min": 69.2691770164,
            "estimated_diameter_max": 154.8905885541
        }
    },
    "is_potentially_hazardous_asteroid": false,
    "close_approach_data": [
        {
            "close_approach_date": "2016-03-24",
            "close_approach_date_full": "2016-Mar-24 22:37",
            "epoch_date_close_approach": 1458859020000,
            "relative_velocity": {
                "kilometers_per_second": "19.6183363739",
                "kilometers_per_hour": "70626.0109459216",
                "miles_per_hour": "43884.2566347033"
            },
            "miss_distance": {
                "astronomical": "0.0558463872",
                "lunar": "21.7242446208",
                "kilometers": "8354500.572315264",
                "miles": "5191245.9343640832"
            },
            "orbiting_body": "Earth"
        }
    ],
    "orbital_data": {
        "orbit_id": "4",
        "orbit_determination_date": "2017-04-06 08:26:54",
        "first_observation_date": "2016-04-01",
        "last_observation_date": "2016-04-05",
        "data_arc_in_days": 4,
        "observations_used": 14,
        "orbit_uncertainty": "9",
        "minimum_orbit_intersection": ".0121606",
        "jupiter_tisserand_invariant": "4.027",
        "epoch_osculation": "2457481.5",
        "eccentricity": ".5934795658402646",
        "semi_major_axis": "1.628643221014137",
        "inclination": "22.47676212932196",
        "ascending_node_longitude": "191.321076535442",
        "orbital_period": "759.1670684581348",
        "perihelion_distance": ".6620767492979768",
        "perihelion_argument": "266.9558984871405",
        "aphelion_distance": "2.595209692730297",
        "perihelion_time": "2457419.959960118048",
        "mean_anomaly": "29.1825281653724",
        "mean_motion": ".4742039202664026",
        "equinox": "J2000",
        "orbit_class": {
            "orbit_class_type": "APO",
            "orbit_class_description": "Near-Earth asteroid orbits which cross the Earth’s orbit similar to that of 1862 Apollo",
            "orbit_class_range": "a (semi-major axis) > 1.0 AU; q (perihelion) < 1.017 AU"
        }
    },
    "is_sentry_object": false
}